#cP2017  5 20  0  0  0.00000000      96 ORBIT IGS14 HLM  IGS
## 1949 518400.00000000   900.00000000 57893 0.0000000000000
+   32   G01G02G03G04G05G06G07G08G09G10G11G12G13G14G15G16G17
+        G18G19G20G21G22G23G24G25G26G27G28G29G30G31G32  0  0
+          0  0  0  0  0  0  0  0  0  0  0  0  0  0  0  0  0
+          0  0  0  0  0  0  0  0  0  0  0  0  0  0  0  0  0
+          0  0  0  0  0  0  0  0  0  0  0  0  0  0  0  0  0
++         2  2  2  0  2  2  2  3  2  2  2  3  2  2  2  2  2
++         3  2  2  3  2  2  2  2  2  3  2  2  2  2  2  0  0
++         0  0  0  0  0  0  0  0  0  0  0  0  0  0  0  0  0
++         0  0  0  0  0  0  0  0  0  0  0  0  0  0  0  0  0
++         0  0  0  0  0  0  0  0  0  0  0  0  0  0  0  0  0
%c G  cc GPS ccc cccc cccc cccc cccc ccccc ccccc ccccc ccccc
%c cc cc ccc ccc cccc cccc cccc cccc ccccc ccccc ccccc ccccc
%f  1.2500000  1.025000000  0.00000000000  0.000000000000000
%f  0.0000000  0.000000000  0.00000000000  0.000000000000000
%i    0    0    0    0      0      0      0      0         0
%i    0    0    0    0      0      0      0      0         0
/* RAPID ORBIT COMBINATION FROM WEIGHTED AVERAGE OF:        
/* cod emr esa gfz jpl ngs sio whu                          
/* REFERENCED TO IGS TIME (IGST) AND TO WEIGHTED MEAN POLE: 
/* PCV:IGS14_1930 OL/AL:FES2004  NONE     Y  ORB:CMB CLK:CMB
*  2017  5 20 10 30  0.00000000
PG01 -16768.498318  -3361.181579  20282.133508     54.896269  7  4  4  97       
PG02  14962.270751  21440.501801  -5063.990475    415.899156 11  9  6  78       
PG03 -19643.607740   8129.565898  15901.676612    -99.546942  7  4  4 103       
PG04  -9494.882355 -24235.511213  -3808.845835 999999.999999
PG05  10219.921190  12198.490092 -21325.972512    -45.187704  4  4  2 102       
PG06   5019.710400  24772.112017   8157.011848    353.314063  6     6  80       
PG07 -10925.126749  11654.144064 -20970.570272    349.386693  5  6  3 103       
PG08 -25401.190309  -5951.509355  -5197.573913    -60.355683  8  7  9 105       
PG09 -19630.281178   9157.499574 -15401.213627    367.115964  7  4  7 112       
PG10   8740.248526 -23264.289785   9240.308435    -48.943218  6  5  7 108       
PG11 -21843.093545  -6151.322767  13191.185168   -689.407104  7  5  6  78       
PG12  17965.104469  -2031.034228  19220.148752    383.194896 10  7  9  96       
PG13  20811.332588  12344.227050 -11013.407788    -82.452717  7  8  7  91       
PG14  -6068.798402 -15801.703407  20779.278183    -71.389507  6  7  4 102       
PG15  26623.202105   2179.219153  -1822.678037   -350.246525  9  6  7  68       
PG16  -7968.496183 -12859.530408 -21909.892037     33.569087 10  7  6  95       
PG17  -4215.358642  14441.339859  22237.841338   -178.770784  3  4  4  97       
PG18  14194.563454 -22316.776009    510.328402    616.334203  7  8  8  93       
PG19   4389.942304  15285.302374  20947.030841   -502.982345  7  5  4  79       
PG20  18558.030492  -3815.230429 -18756.107787    472.928126  9  6  7  76       
PG21   6096.374643 -17566.942519 -18139.468114   -505.950366  7  6  6 119       
PG22 -17258.335260  -1786.085241  20373.084870      4.178514  7  5    106       
PG23 -26165.764592   1422.188162  -5353.811911   -212.115406 11  6  7 100       
PG24  17886.477767   5755.150613  18776.167210    -35.095972 10  6  8 110       
PG25  19115.945339 -15698.538482   9220.271242   -390.400382  5  7  5 103       
PG26   -180.281192 -20410.843991 -16953.399399   -502.229979  6  7  6 111       
PG27 -17997.489709 -12260.841370 -15408.349550    260.873154  8  5  9 102       
PG28 -12596.003424  22343.541040   7516.020832    614.245170  7  6  6  92       
PG29  22075.214790  -5666.435688 -13618.357506    602.707661  8  6  7  83       
PG30  -2425.879151  22288.767111 -14140.509278    156.382295  6  6  6  69       
PG31  -5622.089880 -24999.077516   6227.037645    199.954468  6  3  4  98       
PG32   2478.824993 -15098.433459  21729.166521   -418.655496  6  5  4 105       
*  2017  5 20 10 45  0.00000000
PG01 -17668.161713  -5440.360379  19060.616157     54.896746  8  4  5  79       
PG02  14951.096176  21987.043657  -2297.450654    415.892271 11  8  6  81       
PG03 -18704.077305   6441.707789  17707.983597    -99.545217  7  4  4 102       
PG04  -9371.788855 -24563.350480   -891.721319 999999.999999
PG05   8852.031712  14165.487476 -20691.935028    -45.186061  2  4     99       
PG06   4350.969923  23899.519385  10743.253475    353.318612  6  1  6  98       
PG07 -12022.830538   9437.036964 -21512.450424    349.382956  6  6  4 110       
PG08 -24634.787277  -6126.974052  -7927.448117    -60.357118  8  7  9 136       
PG09 -21253.620776   8856.044771 -13274.024406    367.123150  8  5  7 111       
PG10   9450.101778 -23877.338848   6576.899340    -48.934146  6  5  6 112       
PG11 -22717.015363  -7397.118147  10978.825580   -689.409408  8  5  6  96       
PG12  16638.800336   -145.827619  20486.947599    383.194405 10  7  9 101       
PG13  19419.245877  12277.193436 -13401.774891    -82.454305  7  7  7  89       
PG14  -3725.036585 -15513.450160  21530.243981    -71.391014  5  6  4 101       
PG15  26278.618761   2490.021063  -4562.207447   -350.247029  9  6  7  93       
PG16  -6409.677046 -14735.331798 -21189.525755     33.569587  9  8  6  91       
PG17  -6635.613089  14125.470285  21826.682464   -178.769212  3  4  3  97       
PG18  14427.882448 -21981.970839  -2282.351057    616.335745  7  8  8  96       
PG19   1922.894805  14935.008670  21578.716221   -502.981304  6  5  3  76       
PG20  17637.582929  -1815.129066 -19917.918695    472.929533  9  5  8  86       
PG21   7330.767471 -15609.385289 -19388.024232   -505.948200  7  7  7 119       
PG22 -16111.667193  -3816.923566  21025.024245      4.167734  7  5    103       
PG23 -26625.838665   1128.926571  -2604.103608   -212.116159 11  6  7  95       
PG24  18721.295217   7659.263887  17247.831440    -35.096895 10  6  8  95       
PG25  18594.839884 -14571.020424  11765.541602   -390.406289  6  7  5  94       
PG26    976.621197 -21843.267550 -15023.436713   -502.225966  6  6  6 107       
PG27 -16139.733713 -12270.033552 -17325.850935    260.879232  8  4  9 115       
PG28 -13112.025628  22730.470650   4717.850353    614.247979  7  6  6  97       
PG29  23461.410195  -5323.744439 -11225.056543    602.704643  9  6  7  95       
PG30  -3292.658115  20764.170621 -16155.980815    156.381373  6  6  6  97       
PG31  -5038.506278 -24309.625976   8937.703051    199.952123  5  4  3 106       
PG32   4938.397244 -14915.298926  21429.133600   -418.664733  6  4  4 100       
*  2017  5 20 11  0  0.00000000
PG01 -18599.961592  -7328.789844  17510.836049     54.897171  8  4  5  96       
PG02  14804.431651  22265.074897    508.119733    415.885393 11  7  6  98       
PG03 -17757.880832   4546.514320  19209.221493    -99.543485  7  4  4 110       
PG04  -9145.695512 -24584.133028   2041.200523 999999.999999
PG05   7628.066130  16120.606878 -19703.156939    -45.184295  3  4  1  84       
PG06   3497.556819  22818.039726  13144.637164    353.323172  6  3  6 101       
PG07 -13250.723698   7247.596163 -21676.957659    349.379039  7  6  4 101       
PG08 -23577.249159  -6343.490850 -10521.398476    -60.358292  8  7 10 102       
PG09 -22637.019470   8637.998659 -10918.826973    367.130303  8  5  7 110       
PG10   9971.352276 -24260.142006   3799.631535    -48.925124  7  5  6 112       
PG11 -23435.525769  -8438.733158   8571.671468   -689.411615  8  5  6  87       
PG12  15351.171946   1913.115621  21394.502959    383.193472 11  6  8 118       
PG13  17771.443263  12252.120222 -15560.481839    -82.455548  6  7  7  97       
PG14  -1304.786358 -15344.798016  21920.461325    -71.391912  5  6  5 101       
PG15  25648.670444   2833.761697  -7225.201207   -350.247659  9  7  7  95       
PG16  -5015.312758 -16615.685933 -20105.925788     33.570310  8  8  6  72       
PG17  -9005.860350  13949.184285  21051.237626   -178.767109  4  5  2  96       
PG18  14531.564962 -21377.860895  -5034.942755    616.337802  8  8  8  99       
PG19   -607.589229  14712.837350  21828.595149   -502.979973  4  5  3  73       
PG20  16764.927045    325.916289 -20741.065697    472.930908  9  5  7  78       
PG21   8721.761752 -13603.182540 -20278.845740   -505.946435  7  7  7 117       
PG22 -15036.361158  -5945.932256  21323.287518      4.157112  6  4    107       
PG23 -26789.426358    862.507124    189.375779   -212.116945 11  5  7  97       
PG24  19551.525082   9355.281659  15423.425594    -35.097696 10  6  8  99       
PG25  17992.908393 -13176.470934  14104.421397   -390.412221  7  7  5 107       
PG26   1942.028786 -23131.452748 -12834.023411   -502.221924  6  6  6 108       
PG27 -14084.574027 -12380.341483 -18948.817013    260.885236  8  4  9 108       
PG28 -13425.613109  22882.475190   1839.462412    614.250835  7  6  5 108       
PG29  24582.444089  -5076.878959  -8638.297282    602.701682  9  6  7  90       
PG30  -4326.542586  19094.195085 -17891.987048    156.380427  6  7  6  81       
PG31  -4281.989280 -23385.598675  11491.500697    199.950066  6  4  3 108       
PG32   7349.926345 -14859.857592  20760.857746   -418.673970  7  4  5 109       
EOF
